STARLINK-30374          
1 57809U 23138B   26068.76877028 -.00000468  00000+0 -74695-5 0  9998
2 57809  43.0014 233.4579 0001723 289.6871  70.3794 15.27584414138755
LIZZIESAT-2 (LS-2)      
1 62383U 24247G   26068.49140277  .00009388  00000+0  34517-3 0  9997
2 62383  44.9909 117.0823 0004092 327.5136  32.5495 15.28222796 67716
